{"type": "FeatureCollection", "features": [ {"type": "Feature", "properties": {"norad_id": 65942, "name": "BOTAN", "group": "stations", "lat": 50.28571164951518, "lon": -101.34907243667803, "alt_km": 379.7231295011552, "timestamp": "2025-12-03T10:52:56.240038+00:00", "meta": {"OBJECT_NAME": "BOTAN", "OBJECT_ID": "1998-067XP", "EPOCH": "2025-12-01T23:11:25.783296", "MEAN_MOTION": 15.60127991, "ECCENTRICITY": 0.00045427, "INCLINATION": 51.629, "RA_OF_ASC_NODE": 193.6047, "ARG_OF_PERICENTER": 166.4057, "MEAN_ANOMALY": 193.706, "EPHEMERIS_TYPE": 0, "CLASSIFICATION_TYPE": "U", "NORAD_CAT_ID": 65942, "ELEMENT_SET_NO": 999, "REV_AT_EPOCH": 818, "BSTAR": 0.0011466978, "MEAN_MOTION_DOT": 0.00095633, "MEAN_MOTION_DDOT": 0}, "tle": {"line1": "1 65942U 98067XP  25335.96627064  .00095633  00000+0  11467-2 0  9990", "line2": "2 65942  51.6290 193.6047 0004542 166.4057 193.7060 15.60127991  8189"}}, "geometry": {"type": "Point", "coordinates": [-101.34907243667803, 50.28571164951518]}}, {"type": "Feature", "properties": {"norad_id": 65943, "name": "E-KAGAKU-1", "group": "stations", "lat": -24.499594219467028, "lon": 27.75692704165091, "alt_km": 396.0764125144424, "timestamp": "2025-12-03T10:52:56.240048+00:00", "meta": {"OBJECT_NAME": "E-KAGAKU-1", "OBJECT_ID": "1998-067XQ", "EPOCH": "2025-12-01T21:01:24.466368", "MEAN_MOTION": 15.57573003, "ECCENTRICITY": 0.0003749, "INCLINATION": 51.6307, "RA_OF_ASC_NODE": 194.5023, "ARG_OF_PERICENTER": 145.4218, "MEAN_ANOMALY": 214.7019, "EPHEMERIS_TYPE": 0, "CLASSIFICATION_TYPE": "U", "NORAD_CAT_ID": 65943, "ELEMENT_SET_NO": 999, "REV_AT_EPOCH": 816, "BSTAR": 0.00091790589, "MEAN_MOTION_DOT": 0.00069131, "MEAN_MOTION_DDOT": 0}, "tle": {"line1": "1 65943U 98067XQ  25335.87597762  .00069131  00000+0  91791-3 0  9995", "line2": "2 65943  51.6307 194.5023 0003749 145.4218 214.7019 15.57573003  8168"}}, "geometry": {"type": "Point", "coordinates": [27.75692704165091, -24.499594219467028]}}, {"type": "Feature", "properties": {"norad_id": 66052, "name": "HRC MONOBLOCK CAMERA", "group": "stations", "lat": 0.6613546957746701, "lon": -171.69795535156274, "alt_km": 410.43867239573956, "timestamp": "2025-12-03T10:52:56.240058+00:00", "meta": {"OBJECT_NAME": "HRC MONOBLOCK CAMERA", "OBJECT_ID": "1998-067XR", "EPOCH": "2025-12-03T03:09:28.334016", "MEAN_MOTION": 15.53198776, "ECCENTRICITY": 0.0004376, "INCLINATION": 51.6293, "RA_OF_ASC_NODE": 189.3813, "ARG_OF_PERICENTER": 146.0724, "MEAN_ANOMALY": 214.0547, "EPHEMERIS_TYPE": 0, "CLASSIFICATION_TYPE": "U", "NORAD_CAT_ID": 66052, "ELEMENT_SET_NO": 999, "REV_AT_EPOCH": 734, "BSTAR": 0.00065965, "MEAN_MOTION_DOT": 0.00041976, "MEAN_MOTION_DDOT": 0}, "tle": {"line1": "1 66052U 98067XR  25337.13157794  .00041976  00000+0  65965-3 0  9996", "line2": "2 66052  51.6293 189.3813 0004376 146.0724 214.0547 15.53198776  7343"}}, "geometry": {"type": "Point", "coordinates": [-171.69795535156274, 0.6613546957746701]}}, {"type": "Feature", "properties": {"norad_id": 66174, "name": "HTV-X1", "group": "stations", "lat": 27.93932160784126, "lon": -146.70388799191628, "alt_km": 417.75778882844406, "timestamp": "2025-12-03T10:52:56.240071+00:00", "meta": {"OBJECT_NAME": "HTV-X1", "OBJECT_ID": "2025-241A", "EPOCH": "2025-12-02T02:12:50.598720", "MEAN_MOTION": 15.49237019, "ECCENTRICITY": 0.00036389, "INCLINATION": 51.6314, "RA_OF_ASC_NODE": 195.1903, "ARG_OF_PERICENTER": 193.8265, "MEAN_ANOMALY": 166.2625, "EPHEMERIS_TYPE": 0, "CLASSIFICATION_TYPE": "U", "NORAD_CAT_ID": 66174, "ELEMENT_SET_NO": 999, "REV_AT_EPOCH": 51, "BSTAR": 0.00017380747, "MEAN_MOTION_DOT": 9.217e-05, "MEAN_MOTION_DDOT": 0}, "tle": {"line1": "1 66174U 25241A   25336.09225230  .00009217  00000+0  17381-3 0  9991", "line2": "2 66174  51.6314 195.1903 0003638 193.8265 166.2625 15.49237019   513"}}, "geometry": {"type": "Point", "coordinates": [-146.70388799191628, 27.93932160784126]}}, {"type": "Feature", "properties": {"norad_id": 66515, "name": "SZ-21 MODULE", "group": "stations", "lat": -26.65137757650647, "lon": 38.04201523008036, "alt_km": 386.1171576467332, "timestamp": "2025-12-03T10:52:56.240081+00:00", "meta": {"OBJECT_NAME": "SZ-21 MODULE", "OBJECT_ID": "2025-246C", "EPOCH": "2025-12-02T13:34:42.175488", "MEAN_MOTION": 15.61741357, "ECCENTRICITY": 0.00057421, "INCLINATION": 41.4769, "RA_OF_ASC_NODE": 78.0744, "ARG_OF_PERICENTER": 200.196, "MEAN_ANOMALY": 159.8653, "EPHEMERIS_TYPE": 0, "CLASSIFICATION_TYPE": "U", "NORAD_CAT_ID": 66515, "ELEMENT_SET_NO": 999, "REV_AT_EPOCH": 285, "BSTAR": 0.00037188642, "MEAN_MOTION_DOT": 0.00032894, "MEAN_MOTION_DDOT": 0}, "tle": {"line1": "1 66515U 25246C   25336.56576592  .00032894  00000+0  37189-3 0  9992", "line2": "2 66515  41.4769  78.0744 0005742 200.1960 159.8653 15.61741357  2854"}}, "geometry": {"type": "Point", "coordinates": [38.04201523008036, -26.65137757650647]}}, {"type": "Feature", "properties": {"norad_id": 66645, "name": "SHENZHOU-22", "group": "stations", "lat": 13.977853815208178, "lon": -123.31439148196256, "alt_km": 395.93491768271997, "timestamp": "2025-12-03T10:52:56.240091+00:00", "meta": {"OBJECT_NAME": "SHENZHOU-22", "OBJECT_ID": "2025-272A", "EPOCH": "2025-12-02T14:12:45.225504", "MEAN_MOTION": 15.58538929, "ECCENTRICITY": 0.00102296, "INCLINATION": 41.4674, "RA_OF_ASC_NODE": 78.2835, "ARG_OF_PERICENTER": 314.561, "MEAN_ANOMALY": 45.4392, "EPHEMERIS_TYPE": 0, "CLASSIFICATION_TYPE": "U", "NORAD_CAT_ID": 66645, "ELEMENT_SET_NO": 999, "REV_AT_EPOCH": 26245, "BSTAR": 0.00035376094, "MEAN_MOTION_DOT": 0.00027659, "MEAN_MOTION_DDOT": 0}, "tle": {"line1": "1 66645U 25272A   25336.59219011  .00027659  00000+0  35376-3 0  9997", "line2": "2 66645  41.4674  78.2835 0010229 314.5610  45.4392 15.58538929262453"}}, "geometry": {"type": "Point", "coordinates": [-123.31439148196256, 13.977853815208178]}}, {"type": "Feature", "properties": {"norad_id": 66646, "name": "CZ-2F R/B", "group": "stations", "lat": 41.038262079346794, "lon": 150.09509643355824, "alt_km": 262.1389754587244, "timestamp": "2025-12-03T10:52:56.240105+00:00", "meta": {"OBJECT_NAME": "CZ-2F R/B", "OBJECT_ID": "2025-272B", "EPOCH": "2025-11-26T11:17:54.506400", "MEAN_MOTION": 16.01945612, "ECCENTRICITY": 0.01210796, "INCLINATION": 41.4431, "RA_OF_ASC_NODE": 114.9009, "ARG_OF_PERICENTER": 133.7676, "MEAN_ANOMALY": 227.3272, "EPHEMERIS_TYPE": 0, "CLASSIFICATION_TYPE": "U", "NORAD_CAT_ID": 66646, "ELEMENT_SET_NO": 999, "REV_AT_EPOCH": 21, "BSTAR": 0.00029319366, "MEAN_MOTION_DOT": 0.00449059, "MEAN_MOTION_DDOT": 7.567612e-06}, "tle": {"line1": "1 66646U 25272B   25330.47076975  .00449059  75676-5  29319-3 0  9998", "line2": "2 66646  41.4431 114.9009 0121079 133.7676 227.3272 16.01945612   217"}}, "geometry": {"type": "Point", "coordinates": [150.09509643355824, 41.038262079346794]}}, {"type": "Feature", "properties": {"norad_id": 66664, "name": "SOYUZ-MS 28", "group": "stations", "lat": 27.958252332784713, "lon": -146.68024799853399, "alt_km": 417.7378298157573, "timestamp": "2025-12-03T10:52:56.240121+00:00", "meta": {"OBJECT_NAME": "SOYUZ-MS 28", "OBJECT_ID": "2025-275A", "EPOCH": "2025-12-02T22:20:22.303680", "MEAN_MOTION": 15.49259436, "ECCENTRICITY": 0.0003627, "INCLINATION": 51.631, "RA_OF_ASC_NODE": 191.0402, "ARG_OF_PERICENTER": 198.2346, "MEAN_ANOMALY": 161.8513, "EPHEMERIS_TYPE": 0, "CLASSIFICATION_TYPE": "U", "NORAD_CAT_ID": 66664, "ELEMENT_SET_NO": 999, "REV_AT_EPOCH": 92, "BSTAR": 0.00022507, "MEAN_MOTION_DOT": 0.00012082, "MEAN_MOTION_DDOT": 0}, "tle": {"line1": "1 66664U 25275A   25336.93081370  .00012082  00000+0  22507-3 0  9990", "line2": "2 66664  51.6310 191.0402 0003627 198.2346 161.8513 15.49259436   928"}}, "geometry": {"type": "Point", "coordinates": [-146.68024799853399, 27.958252332784713]}}]}